NORAD_CAT_ID,OBJECT_NAME,OBJECT_TYPE,EPOCH,MEAN_MOTION,ECCENTRICITY,INCLINATION,RA_OF_ASC_NODE,ARG_OF_PERICENTER,MEAN_ANOMALY,BSTAR,MEAN_MOTION_DOT,MEAN_MOTION_DDOT,TLE_LINE0,TLE_LINE1,TLE_LINE2,SEMIMAJOR_AXIS,PERIOD,APOGEE,PERIGEE,DECAYED
52693.0,STARLINK-3946,PAYLOAD,2023-05-05 09:30:54,15.08843521,0.0001208,53.2148,129.6863,86.6382,273.4749,9.8356e-05,1.278e-05,0.0,0 STARLINK-3946,1 52693U 22053AP  23125.39646016  .00001278  00000-0  98356-4 0  9998,2 52693  53.2148 129.6863 0001208  86.6382 273.4749 15.08843521 53853,6917.87,95.437,540.57,538.899,0.0
52693.0,STARLINK-3946,PAYLOAD,2023-05-06 09:21:41,15.08843145,0.0001198,53.2149,125.2253,89.0179,271.095,0.00011132,1.484e-05,0.0,0 STARLINK-3946,1 52693U 22053AP  23126.39006195  .00001484  00000-0  11132-3 0  9992,2 52693  53.2149 125.2253 0001198  89.0179 271.0950 15.08843145 54400,6917.871,95.437,540.565,538.907,0.0
52693.0,STARLINK-3946,PAYLOAD,2023-05-06 23:40:09,15.08844399,0.0001292,53.2151,122.5487,88.6147,271.4993,5.3423e-05,5.63e-06,0.0,0 STARLINK-3946,1 52693U 22053AP  23126.98622259  .00000563  00000-0  53423-4 0  9999,2 52693  53.2151 122.5487 0001292  88.6147 271.4993 15.08844399 54095,6917.867,95.437,540.626,538.838,0.0
52693.0,STARLINK-3946,PAYLOAD,2023-05-07 06:01:42,15.08845359,0.0001242,53.2156,121.3592,88.2011,271.9124,5.034e-05,5.13e-06,0.0,0 STARLINK-3946,1 52693U 22053AP  23127.25118158  .00000513  00000-0  50340-4 0  9998,2 52693  53.2156 121.3592 0001242  88.2011 271.9124 15.08845359 54532,6917.864,95.437,540.588,538.87,0.0
52693.0,STARLINK-3946,PAYLOAD,2023-05-07 17:09:24,15.08842748,0.0001233,53.2155,119.2775,91.5028,268.6106,6.7848e-05,7.92e-06,0.0,0 STARLINK-3946,1 52693U 22053AP  23127.71486170  .00000792  00000-0  67848-4 0  9991,2 52693  53.2155 119.2775 0001233  91.5028 268.6106 15.08842748 54605,6917.872,95.437,540.59,538.884,0.0
52693.0,STARLINK-3946,PAYLOAD,2023-05-08 04:17:06,15.08838934,0.0001255,53.216,117.1963,90.8485,269.2651,2.1462e-05,5.4e-07,0.0,0 STARLINK-3946,1 52693U 22053AP  23128.17854531  .00000054  00000-0  21462-4 0  9995,2 52693  53.2160 117.1963 0001255  90.8485 269.2651 15.08838934 54277,6917.884,95.438,540.617,538.88,0.0
52693.0,STARLINK-3946,PAYLOAD,2023-05-08 10:38:38,15.08842268,0.0001273,53.2161,116.0067,91.9164,268.1974,4.541e-05,4.35e-06,0.0,0 STARLINK-3946,1 52693U 22053AP  23128.44350190  .00000435  00000-0  45410-4 0  9999,2 52693  53.2161 116.0067 0001273  91.9164 268.1974 15.08842268 54717,6917.873,95.437,540.619,538.858,0.0
52693.0,STARLINK-3946,PAYLOAD,2023-05-09 10:29:25,15.08842265,0.0001289,53.2167,111.5476,88.9794,271.1346,5.4873e-05,5.86e-06,0.0,0 STARLINK-3946,1 52693U 22053AP  23129.43710280  .00000586  00000-0  54873-4 0  9999,2 52693  53.2167 111.5476 0001289  88.9794 271.1346 15.08842265 54869,6917.873,95.437,540.63,538.847,0.0
52693.0,STARLINK-3946,PAYLOAD,2023-05-10 05:34:03,15.088411,0.0001289,53.2169,107.979,90.2472,269.8668,7.7382e-05,9.44e-06,0.0,0 STARLINK-3946,1 52693U 22053AP  23130.23198472  .00000944  00000-0  77382-4 0  9990,2 52693  53.2169 107.9790 0001289  90.2472 269.8668 15.08841100 54989,6917.877,95.437,540.634,538.85,0.0
52693.0,STARLINK-3946,PAYLOAD,2023-05-11 05:24:50,15.08843588,0.0001149,53.216,103.5191,94.0331,266.0792,5.735e-05,6.25e-06,0.0,0 STARLINK-3946,1 52693U 22053AP  23131.22558468  .00000625  00000-0  57350-4 0  9994,2 52693  53.2160 103.5191 0001149  94.0331 266.0792 15.08843588 55135,6917.869,95.437,540.529,538.94,0.0
52693.0,STARLINK-3946,PAYLOAD,2023-05-12 03:40:15,15.08835164,0.0001047,53.2167,99.357,101.701,258.41,-3.846e-05,-9e-06,0.0,0 STARLINK-3946,1 52693U 22053AP  23132.15295604 -.00000900  00000-0 -38460-4 0  9996,2 52693  53.2167  99.3570 0001047 101.7010 258.4100 15.08835164 55276,6917.895,95.438,540.484,539.036,0.0
52693.0,STARLINK-3946,PAYLOAD,2023-05-12 05:15:38,15.08834096,0.0001048,53.2167,99.0597,90.7696,269.3416,-3.6111e-05,-8.62e-06,0.0,0 STARLINK-3946,1 52693U 22053AP  23132.21919726 -.00000862  00000-0 -36111-4 0  9999,2 52693  53.2167  99.0597 0001048  90.7696 269.3416 15.08834096 54880,6917.898,95.438,540.488,539.038,0.0
52693.0,STARLINK-3946,PAYLOAD,2023-05-13 05:06:26,15.08829203,0.0001103,53.2173,94.6002,126.708,233.4013,-1.7901e-05,-5.73e-06,0.0,0 STARLINK-3946,1 52693U 22053AP  23133.21280742 -.00000573  00000-0 -17901-4 0  9994,2 52693  53.2173  94.6002 0001103 126.7080 233.4013 15.08829203 55035,6917.913,95.438,540.541,539.015,0.0
52693.0,STARLINK-3946,PAYLOAD,2023-05-14 03:21:49,15.08838999,0.0001155,53.2181,90.4339,85.4924,274.6201,0.00014455,2.013e-05,0.0,0 STARLINK-3946,1 52693U 22053AP  23134.14015977  .00002013  00000-0  14455-3 0  9992,2 52693  53.2181  90.4339 0001155  85.4924 274.6201 15.08838999 55179,6917.883,95.438,540.547,538.949,0.0
52693.0,STARLINK-3946,PAYLOAD,2023-05-15 03:12:36,15.08813767,0.0001095,53.2166,85.9748,86.7688,273.343,0.00053643,8.254e-05,0.0,0 STARLINK-3946,1 52693U 22053AP  23135.13375936  .00008254  00000-0  53643-3 0  9991,2 52693  53.2166  85.9748 0001095  86.7688 273.3430 15.08813767 55322,6917.961,95.439,540.583,539.068,0.0
52693.0,STARLINK-3946,PAYLOAD,2023-05-16 03:03:25,15.08825553,0.0001112,53.2167,81.5144,83.3059,276.806,-0.00019388,-3.371e-05,0.0,0 STARLINK-3946,1 52693U 22053AP  23136.12738386 -.00003371  00000-0 -19388-3 0  9998,2 52693  53.2167  81.5144 0001112  83.3059 276.8060 15.08825553 55479,6917.925,95.438,540.559,539.02,0.0
52693.0,STARLINK-3946,PAYLOAD,2023-05-16 06:14:12,15.08826257,0.0001068,53.2168,80.9198,82.8259,277.2854,-0.00018202,-3.182e-05,0.0,0 STARLINK-3946,1 52693U 22053AP  23136.25986409 -.00003182  00000-0 -18202-3 0  9997,2 52693  53.2168  80.9198 0001068  82.8259 277.2854 15.08826257 55892,6917.922,95.438,540.526,539.049,0.0
52693.0,STARLINK-3946,PAYLOAD,2023-05-17 02:54:10,15.08852217,0.0001258,53.218,77.054,82.8081,277.3054,1.445e-05,-5.8e-07,0.0,0 STARLINK-3946,1 52693U 22053AP  23137.12096005 -.00000058  00000-0  14450-4 0  9998,2 52693  53.2180  77.0540 0001258  82.8081 277.3054 15.08852217 55627,6917.843,95.437,540.578,538.838,0.0
52693.0,STARLINK-3946,PAYLOAD,2023-05-17 15:37:16,15.08835557,0.0001174,53.218,74.6768,89.6725,270.4401,0.00025122,3.712e-05,0.0,0 STARLINK-3946,1 52693U 22053AP  23137.65088265  .00003712  00000-0  25122-3 0  9991,2 52693  53.2180  74.6768 0001174  89.6725 270.4401 15.08835557 55706,6917.894,95.438,540.571,538.947,0.0
52693.0,STARLINK-3946,PAYLOAD,2023-05-18 04:20:20,15.08842875,0.0001152,53.2179,72.2965,81.4657,278.6466,0.00027439,4.082e-05,0.0,0 STARLINK-3946,1 52693U 22053AP  23138.18079792  .00004082  00000-0  27439-3 0  9999,2 52693  53.2179  72.2965 0001152  81.4657 278.6466 15.08842875 56182,6917.872,95.437,540.534,538.94,0.0
52693.0,STARLINK-3946,PAYLOAD,2023-05-19 02:35:46,15.08812093,0.0001428,53.2183,68.1345,90.2351,269.8805,0.00032459,4.878e-05,0.0,0 STARLINK-3946,1 52693U 22053AP  23139.10817174  .00004878  00000-0  32459-3 0  9997,2 52693  53.2183  68.1345 0001428  90.2351 269.8805 15.08812093 55927,6917.966,95.439,540.819,538.843,0.0
52693.0,STARLINK-3946,PAYLOAD,2023-05-19 05:46:31,15.08850076,0.0001194,53.2181,67.5386,88.241,271.8719,-4.5486e-05,-1.012e-05,0.0,0 STARLINK-3946,1 52693U 22053AP  23139.24064100 -.00001012  00000-0 -45486-4 0  9999,2 52693  53.2181  67.5386 0001194  88.2410 271.8719 15.08850076 55948,6917.85,95.437,540.541,538.889,0.0
52693.0,STARLINK-3946,PAYLOAD,2023-05-20 02:26:32,15.08844691,0.0001225,53.2179,63.6726,91.3723,268.741,-4.383e-05,-9.85e-06,0.0,0 STARLINK-3946,1 52693U 22053AP  23140.10176202 -.00000985  00000-0 -43830-4 0  9992,2 52693  53.2179  63.6726 0001225  91.3723 268.7410 15.08844691 56071,6917.866,95.437,540.578,538.884,0.0
52693.0,STARLINK-3946,PAYLOAD,2023-05-20 04:01:55,15.08848912,0.0001186,53.2178,63.3749,87.4641,272.6487,-5.2705e-05,-1.127e-05,0.0,0 STARLINK-3946,1 52693U 22053AP  23140.16799987 -.00001127  00000-0 -52705-4 0  9999,2 52693  53.2178  63.3749 0001186  87.4641 272.6487 15.08848912 56486,6917.853,95.437,540.539,538.898,0.0
52693.0,STARLINK-3946,PAYLOAD,2023-05-21 00:41:54,15.08879799,0.0001187,53.2179,59.5075,70.0104,290.1016,-0.00020973,-3.628e-05,0.0,0 STARLINK-3946,1 52693U 22053AP  23141.02910496 -.00003628  00000-0 -20973-3 0  9994,2 52693  53.2179  59.5075 0001187  70.0104 290.1016 15.08879799 56210,6917.759,95.435,540.445,538.803,0.0
52693.0,STARLINK-3946,PAYLOAD,2023-05-21 02:17:17,15.08890395,0.0001305,53.2183,59.2105,63.3521,296.7605,-0.0002996,-5.06e-05,0.0,0 STARLINK-3946,1 52693U 22053AP  23141.09534102 -.00005060  00000-0 -29960-3 0  9994,2 52693  53.2183  59.2105 0001305  63.3521 296.7605 15.08890395 56228,6917.726,95.434,540.494,538.689,0.0
52693.0,STARLINK-3946,PAYLOAD,2023-05-22 02:08:07,15.08832112,0.0001252,53.2182,54.7503,106.4173,253.6957,-9.0955e-05,-1.735e-05,0.0,0 STARLINK-3946,1 52693U 22053AP  23142.08897025 -.00001735  00000-0 -90955-4 0  9998,2 52693  53.2182  54.7503 0001252 106.4173 253.6957 15.08832112 56373,6917.904,95.438,540.636,538.903,0.0
52693.0,STARLINK-3946,PAYLOAD,2023-05-22 11:40:25,15.08839288,0.0001371,53.2183,52.9653,112.3378,247.776,-2.7098e-05,-7.19e-06,0.0,0 STARLINK-3946,1 52693U 22053AP  23142.48640403 -.00000719  00000-0 -27098-4 0  9997,2 52693  53.2183  52.9653 0001371 112.3378 247.7760 15.08839288 56833,6917.883,95.438,540.696,538.799,0.0
52693.0,STARLINK-3946,PAYLOAD,2023-05-22 18:01:57,15.0885301,0.0001235,53.2184,51.7767,103.6551,256.4579,-3.7517e-05,-8.85e-06,0.0,0 STARLINK-3946,1 52693U 22053AP  23142.75135768 -.00000885  00000-0 -37517-4 0  9991,2 52693  53.2184  51.7767 0001235 103.6551 256.4579 15.08853010 56476,6917.841,95.437,540.56,538.851,0.0
52693.0,STARLINK-3946,PAYLOAD,2023-05-22 21:12:43,15.08857206,0.0001208,53.2182,51.1837,98.1132,261.9997,9.7098e-06,-1.33e-06,0.0,0 STARLINK-3946,1 52693U 22053AP  23142.88383309 -.00000133  00000-0  97098-5 0  9997,2 52693  53.2182  51.1837 0001208  98.1132 261.9997 15.08857206 56891,6917.828,95.436,540.528,538.857,0.0
